GOES 1 (SMS-C)          
1 08366U 75100A   26088.16200694  .00000003  00000+0  00000+0 0  9999
2 08366   4.8118 278.4565 0004814   2.3847 200.5696  1.00243042184260
GOES 2                  
1 10061U 77048A   26088.12266014  .00000049  00000+0  00000+0 0  9991
2 10061   6.6110 294.0314 0013763  51.0787 283.1193  0.99396723 45470
GOES 3                  
1 10953U 78062A   26088.13054683  .00000006  00000+0  00000+0 0  9999
2 10953   7.0836 299.8902 0002382   2.9598   8.0704  0.99356954127741
GOES 4                  
1 11964U 80074A   26088.15784694  .00000027  00000+0  00000+0 0  9995
2 11964   8.1591 303.5596 0032653 104.2659  50.1916  0.99230241126645
GOES 5                  
1 12472U 81049A   26088.16781365 -.00000184  00000+0  00000+0 0  9991
2 12472   9.5025 316.1890 0004141 342.5315 214.0135  1.00207425122046
GOES 6                  
1 14050U 83041A   26088.16391362 -.00000061  00000+0  00000+0 0  9997
2 14050  10.3189 321.7461 0001752 311.0051 218.5671  1.00220089215217
GOES 7                  
1 17561U 87022A   26086.37139314  .00000049  00000+0  00000+0 0  9993
2 17561  13.0005 338.2141 0004074  23.9266 152.2943  0.99904305126145
GOES 8                  
1 23051U 94022A   26087.91225360  .00000011  00000+0  00000+0 0  9999
2 23051  14.3620  14.2857 0005773  23.9362 163.8207  0.98903984123332
GOES 9                  
1 23581U 95025A   26087.55962522 -.00000288  00000+0  00000+0 0  9996
2 23581  13.8919  15.1390 0002833 199.2782 324.8142  0.98802600111960
GOES 10                 
1 24786U 97019A   26088.04269794 -.00000220  00000+0  00000+0 0  9991
2 24786  13.0343  21.6720 0030662 239.7278 294.5630  0.99127235105278
GOES 11                 
1 26352U 00022A   26088.14970025 -.00000211  00000+0  00000+0 0  9997
2 26352  11.6334  47.2034 0005201 262.4593 105.1899  0.99045304 51684
GOES 12                 
1 26871U 01031A   26088.01219117 -.00000048  00000+0  00000+0 0  9996
2 26871  12.0404  37.9353 0008546 301.8891  50.5567  0.99138596 89960
EWS-G1 (GOES 13)        
1 29155U 06018A   26087.99572443 -.00000174  00000+0  00000+0 0  9994
2 29155   4.3257  77.3794 0061946 274.3283 310.6149  0.98786735 42459
GOES 14                 
1 35491U 09033A   26088.22211098  .00000052  00000+0  00000+0 0  9991
2 35491   1.4842  84.0175 0001735 278.8459  90.5987  1.00108852  5791
EWS-G2 (GOES 15)        
1 36411U 10008A   26088.12777348  .00000004  00000+0  00000+0 0  9999
2 36411   1.0690  84.4537 0002709  19.2530 192.1222  1.00270431 58833
GOES 16                 
1 41866U 16071A   26088.16573365 -.00000110  00000+0  00000+0 0  9991
2 41866   0.1593  85.4870 0002177 233.9683 182.0751  1.00271594 34301
GOES 17                 
1 43226U 18022A   26088.16876697 -.00000201  00000+0  00000+0 0  9996
2 43226   0.7327  86.9204 0001516 239.4118 191.4906  1.00271483 29623
