[{"OBJECT_NAME":"GOES 1 (SMS-C)","OBJECT_ID":"1975-100A","EPOCH":"2026-03-29T03:53:17.399616","MEAN_MOTION":1.00243042,"ECCENTRICITY":0.0004814,"INCLINATION":4.8118,"RA_OF_ASC_NODE":278.4565,"ARG_OF_PERICENTER":2.3847,"MEAN_ANOMALY":200.5696,"EPHEMERIS_TYPE":0,"CLASSIFICATION_TYPE":"U","NORAD_CAT_ID":8366,"ELEMENT_SET_NO":999,"REV_AT_EPOCH":18426,"BSTAR":0,"MEAN_MOTION_DOT":3.0e-8,"MEAN_MOTION_DDOT":0},{"OBJECT_NAME":"GOES 2","OBJECT_ID":"1977-048A","EPOCH":"2026-03-29T02:56:37.836096","MEAN_MOTION":0.99396723,"ECCENTRICITY":0.0013763,"INCLINATION":6.611,"RA_OF_ASC_NODE":294.0314,"ARG_OF_PERICENTER":51.0787,"MEAN_ANOMALY":283.1193,"EPHEMERIS_TYPE":0,"CLASSIFICATION_TYPE":"U","NORAD_CAT_ID":10061,"ELEMENT_SET_NO":999,"REV_AT_EPOCH":4547,"BSTAR":0,"MEAN_MOTION_DOT":4.9e-7,"MEAN_MOTION_DDOT":0},{"OBJECT_NAME":"GOES 3","OBJECT_ID":"1978-062A","EPOCH":"2026-03-29T03:07:59.246112","MEAN_MOTION":0.99356954,"ECCENTRICITY":0.0002382,"INCLINATION":7.0836,"RA_OF_ASC_NODE":299.8902,"ARG_OF_PERICENTER":2.9598,"MEAN_ANOMALY":8.0704,"EPHEMERIS_TYPE":0,"CLASSIFICATION_TYPE":"U","NORAD_CAT_ID":10953,"ELEMENT_SET_NO":999,"REV_AT_EPOCH":12774,"BSTAR":0,"MEAN_MOTION_DOT":6.0e-8,"MEAN_MOTION_DDOT":0},{"OBJECT_NAME":"GOES 4","OBJECT_ID":"1980-074A","EPOCH":"2026-03-29T03:47:17.975616","MEAN_MOTION":0.99230241,"ECCENTRICITY":0.0032653,"INCLINATION":8.1591,"RA_OF_ASC_NODE":303.5596,"ARG_OF_PERICENTER":104.2659,"MEAN_ANOMALY":50.1916,"EPHEMERIS_TYPE":0,"CLASSIFICATION_TYPE":"U","NORAD_CAT_ID":11964,"ELEMENT_SET_NO":999,"REV_AT_EPOCH":12664,"BSTAR":0,"MEAN_MOTION_DOT":2.7e-7,"MEAN_MOTION_DDOT":0},{"OBJECT_NAME":"GOES 5","OBJECT_ID":"1981-049A","EPOCH":"2026-03-29T04:01:39.099360","MEAN_MOTION":1.00207425,"ECCENTRICITY":0.0004141,"INCLINATION":9.5025,"RA_OF_ASC_NODE":316.189,"ARG_OF_PERICENTER":342.5315,"MEAN_ANOMALY":214.0135,"EPHEMERIS_TYPE":0,"CLASSIFICATION_TYPE":"U","NORAD_CAT_ID":12472,"ELEMENT_SET_NO":999,"REV_AT_EPOCH":12204,"BSTAR":0,"MEAN_MOTION_DOT":-1.84e-6,"MEAN_MOTION_DDOT":0},{"OBJECT_NAME":"GOES 6","OBJECT_ID":"1983-041A","EPOCH":"2026-03-29T03:56:02.136768","MEAN_MOTION":1.00220089,"ECCENTRICITY":0.0001752,"INCLINATION":10.3189,"RA_OF_ASC_NODE":321.7461,"ARG_OF_PERICENTER":311.0051,"MEAN_ANOMALY":218.5671,"EPHEMERIS_TYPE":0,"CLASSIFICATION_TYPE":"U","NORAD_CAT_ID":14050,"ELEMENT_SET_NO":999,"REV_AT_EPOCH":21521,"BSTAR":0,"MEAN_MOTION_DOT":-6.1e-7,"MEAN_MOTION_DDOT":0},{"OBJECT_NAME":"GOES 7","OBJECT_ID":"1987-022A","EPOCH":"2026-03-27T08:54:48.367296","MEAN_MOTION":0.99904305,"ECCENTRICITY":0.0004074,"INCLINATION":13.0005,"RA_OF_ASC_NODE":338.2141,"ARG_OF_PERICENTER":23.9266,"MEAN_ANOMALY":152.2943,"EPHEMERIS_TYPE":0,"CLASSIFICATION_TYPE":"U","NORAD_CAT_ID":17561,"ELEMENT_SET_NO":999,"REV_AT_EPOCH":12614,"BSTAR":0,"MEAN_MOTION_DOT":4.9e-7,"MEAN_MOTION_DDOT":0},{"OBJECT_NAME":"GOES 8","OBJECT_ID":"1994-022A","EPOCH":"2026-03-28T21:53:38.711040","MEAN_MOTION":0.98903984,"ECCENTRICITY":0.0005773,"INCLINATION":14.362,"RA_OF_ASC_NODE":14.2857,"ARG_OF_PERICENTER":23.9362,"MEAN_ANOMALY":163.8207,"EPHEMERIS_TYPE":0,"CLASSIFICATION_TYPE":"U","NORAD_CAT_ID":23051,"ELEMENT_SET_NO":999,"REV_AT_EPOCH":12333,"BSTAR":0,"MEAN_MOTION_DOT":1.1e-7,"MEAN_MOTION_DDOT":0},{"OBJECT_NAME":"GOES 9","OBJECT_ID":"1995-025A","EPOCH":"2026-03-28T13:25:51.619008","MEAN_MOTION":0.988026,"ECCENTRICITY":0.0002833,"INCLINATION":13.8919,"RA_OF_ASC_NODE":15.139,"ARG_OF_PERICENTER":199.2782,"MEAN_ANOMALY":324.8142,"EPHEMERIS_TYPE":0,"CLASSIFICATION_TYPE":"U","NORAD_CAT_ID":23581,"ELEMENT_SET_NO":999,"REV_AT_EPOCH":11196,"BSTAR":0,"MEAN_MOTION_DOT":-2.88e-6,"MEAN_MOTION_DDOT":0},{"OBJECT_NAME":"GOES 10","OBJECT_ID":"1997-019A","EPOCH":"2026-03-29T01:01:29.102016","MEAN_MOTION":0.99127235,"ECCENTRICITY":0.0030662,"INCLINATION":13.0343,"RA_OF_ASC_NODE":21.672,"ARG_OF_PERICENTER":239.7278,"MEAN_ANOMALY":294.563,"EPHEMERIS_TYPE":0,"CLASSIFICATION_TYPE":"U","NORAD_CAT_ID":24786,"ELEMENT_SET_NO":999,"REV_AT_EPOCH":10527,"BSTAR":0,"MEAN_MOTION_DOT":-2.2e-6,"MEAN_MOTION_DDOT":0},{"OBJECT_NAME":"GOES 11","OBJECT_ID":"2000-022A","EPOCH":"2026-03-29T03:35:34.101600","MEAN_MOTION":0.99045304,"ECCENTRICITY":0.0005201,"INCLINATION":11.6334,"RA_OF_ASC_NODE":47.2034,"ARG_OF_PERICENTER":262.4593,"MEAN_ANOMALY":105.1899,"EPHEMERIS_TYPE":0,"CLASSIFICATION_TYPE":"U","NORAD_CAT_ID":26352,"ELEMENT_SET_NO":999,"REV_AT_EPOCH":5168,"BSTAR":0,"MEAN_MOTION_DOT":-2.11e-6,"MEAN_MOTION_DDOT":0},{"OBJECT_NAME":"GOES 12","OBJECT_ID":"2001-031A","EPOCH":"2026-03-29T00:17:33.317088","MEAN_MOTION":0.99138596,"ECCENTRICITY":0.0008546,"INCLINATION":12.0404,"RA_OF_ASC_NODE":37.9353,"ARG_OF_PERICENTER":301.8891,"MEAN_ANOMALY":50.5567,"EPHEMERIS_TYPE":0,"CLASSIFICATION_TYPE":"U","NORAD_CAT_ID":26871,"ELEMENT_SET_NO":999,"REV_AT_EPOCH":8996,"BSTAR":0,"MEAN_MOTION_DOT":-4.8e-7,"MEAN_MOTION_DDOT":0},{"OBJECT_NAME":"EWS-G1 (GOES 13)","OBJECT_ID":"2006-018A","EPOCH":"2026-03-28T23:53:50.590752","MEAN_MOTION":0.98786735,"ECCENTRICITY":0.0061946,"INCLINATION":4.3257,"RA_OF_ASC_NODE":77.3794,"ARG_OF_PERICENTER":274.3283,"MEAN_ANOMALY":310.6149,"EPHEMERIS_TYPE":0,"CLASSIFICATION_TYPE":"U","NORAD_CAT_ID":29155,"ELEMENT_SET_NO":999,"REV_AT_EPOCH":4245,"BSTAR":0,"MEAN_MOTION_DOT":-1.74e-6,"MEAN_MOTION_DDOT":0},{"OBJECT_NAME":"GOES 14","OBJECT_ID":"2009-033A","EPOCH":"2026-03-29T05:19:50.388672","MEAN_MOTION":1.00108852,"ECCENTRICITY":0.0001735,"INCLINATION":1.4842,"RA_OF_ASC_NODE":84.0175,"ARG_OF_PERICENTER":278.8459,"MEAN_ANOMALY":90.5987,"EPHEMERIS_TYPE":0,"CLASSIFICATION_TYPE":"U","NORAD_CAT_ID":35491,"ELEMENT_SET_NO":999,"REV_AT_EPOCH":579,"BSTAR":0,"MEAN_MOTION_DOT":5.2e-7,"MEAN_MOTION_DDOT":0},{"OBJECT_NAME":"EWS-G2 (GOES 15)","OBJECT_ID":"2010-008A","EPOCH":"2026-03-29T03:03:59.628672","MEAN_MOTION":1.00270431,"ECCENTRICITY":0.0002709,"INCLINATION":1.069,"RA_OF_ASC_NODE":84.4537,"ARG_OF_PERICENTER":19.253,"MEAN_ANOMALY":192.1222,"EPHEMERIS_TYPE":0,"CLASSIFICATION_TYPE":"U","NORAD_CAT_ID":36411,"ELEMENT_SET_NO":999,"REV_AT_EPOCH":5883,"BSTAR":0,"MEAN_MOTION_DOT":4.0e-8,"MEAN_MOTION_DDOT":0},{"OBJECT_NAME":"GOES 16","OBJECT_ID":"2016-071A","EPOCH":"2026-03-29T03:58:39.387360","MEAN_MOTION":1.00271594,"ECCENTRICITY":0.0002177,"INCLINATION":0.1593,"RA_OF_ASC_NODE":85.487,"ARG_OF_PERICENTER":233.9683,"MEAN_ANOMALY":182.0751,"EPHEMERIS_TYPE":0,"CLASSIFICATION_TYPE":"U","NORAD_CAT_ID":41866,"ELEMENT_SET_NO":999,"REV_AT_EPOCH":3430,"BSTAR":0,"MEAN_MOTION_DOT":-1.1e-6,"MEAN_MOTION_DDOT":0},{"OBJECT_NAME":"GOES 17","OBJECT_ID":"2018-022A","EPOCH":"2026-03-29T04:03:01.466208","MEAN_MOTION":1.00271483,"ECCENTRICITY":0.0001516,"INCLINATION":0.7327,"RA_OF_ASC_NODE":86.9204,"ARG_OF_PERICENTER":239.4118,"MEAN_ANOMALY":191.4906,"EPHEMERIS_TYPE":0,"CLASSIFICATION_TYPE":"U","NORAD_CAT_ID":43226,"ELEMENT_SET_NO":999,"REV_AT_EPOCH":2962,"BSTAR":0,"MEAN_MOTION_DOT":-2.01e-6,"MEAN_MOTION_DDOT":0}]
